start=new Date('2021-10-03T00:00:00.000Z').valueOf();
sats=[{"REF_FRAME":"TEME","LAUNCH_DATE":"2021-03-14","COUNTRY_CODE":"US","SEMIMAJOR_AXIS":"6925.356","FILE":"3141323","GP_ID":"186051581","OBJECT_ID":"2021-021E","NORAD_CAT_ID":"47864","INCLINATION":"53.0568","OBJECT_TYPE":"PAYLOAD","EPHEMERIS_TYPE":"0","MEAN_ANOMALY":"240.1335","TIME_SYSTEM":"UTC","REV_AT_EPOCH":"3225","ECCENTRICITY":"0.00006790","PERIOD":"95.592","MEAN_MOTION":"15.06397493","MEAN_ELEMENT_THEORY":"SGP4","EPOCH":"2021-10-02T10:49:30.727776","APOAPSIS":"547.691","MEAN_MOTION_DDOT":"0.0000000000000","SITE":"AFETR","RCS_SIZE":"LARGE","MEAN_MOTION_DOT":"0.00000926","ARG_OF_PERICENTER":"119.9722","ELEMENT_SET_NO":"999","OBJECT_NAME":"STARLINK-2304","RA_OF_ASC_NODE":"330.6567","CLASSIFICATION_TYPE":"U","CENTER_NAME":"EARTH","DECAY_DATE":null,"TLE_LINE2":"2 47864  53.0568 330.6567 0000679 119.9722 240.1335 15.06397493 32258","TLE_LINE1":"1 47864U 21021E   21275.45105009  .00000926  00000-0  81009-4 0  9995","BSTAR":"0.00008100900000","PERIAPSIS":"546.751"},{"REF_FRAME":"TEME","COUNTRY_CODE":"US","LAUNCH_DATE":"2021-03-14","FILE":"3141323","GP_ID":"186052332","OBJECT_ID":"2021-021F","SEMIMAJOR_AXIS":"6925.361","EPHEMERIS_TYPE":"0","MEAN_ANOMALY":"245.8298","INCLINATION":"53.0558","OBJECT_TYPE":"PAYLOAD","NORAD_CAT_ID":"47865","ECCENTRICITY":"0.00010540","REV_AT_EPOCH":"3227","TIME_SYSTEM":"UTC","PERIOD":"95.592","MEAN_ELEMENT_THEORY":"SGP4","MEAN_MOTION":"15.06395868","EPOCH":"2021-10-02T15:36:09.957600","APOAPSIS":"547.956","RCS_SIZE":"LARGE","SITE":"AFETR","MEAN_MOTION_DDOT":"0.0000000000000","MEAN_MOTION_DOT":"0.00000995","ARG_OF_PERICENTER":"114.2801","RA_OF_ASC_NODE":"339.7538","OBJECT_NAME":"STARLINK-2310","ELEMENT_SET_NO":"999","DECAY_DATE":null,"TLE_LINE2":"2 47865  53.0558 339.7538 0001054 114.2801 245.8298 15.06395868 32276","TLE_LINE1":"1 47865U 21021F   21275.65011525  .00000995  00000-0  85654-4 0  9993","CENTER_NAME":"EARTH","CLASSIFICATION_TYPE":"U","BSTAR":"0.00008565400000","PERIAPSIS":"546.496"},{"ARG_OF_PERICENTER":"113.7140","MEAN_MOTION_DOT":"0.00001430","SITE":"AFETR","MEAN_MOTION_DDOT":"0.0000000000000","RCS_SIZE":"MEDIUM","APOAPSIS":"547.856","EPOCH":"2021-10-02T15:41:27.875904","PERIAPSIS":"546.496","BSTAR":"0.00011486000000","CLASSIFICATION_TYPE":"U","CENTER_NAME":"EARTH","TLE_LINE1":"1 47866U 21021G   21275.65379486  .00001430  00000-0  11486-3 0  9993","TLE_LINE2":"2 47866  53.0569 339.7426 0000982 113.7140 246.3952 15.06412285 32326","DECAY_DATE":null,"ELEMENT_SET_NO":"999","OBJECT_NAME":"STARLINK-2320","RA_OF_ASC_NODE":"339.7426","NORAD_CAT_ID":"47866","OBJECT_TYPE":"PAYLOAD","INCLINATION":"53.0569","MEAN_ANOMALY":"246.3952","EPHEMERIS_TYPE":"0","SEMIMAJOR_AXIS":"6925.311","OBJECT_ID":"2021-021G","GP_ID":"186052583","FILE":"3141323","LAUNCH_DATE":"2021-03-14","COUNTRY_CODE":"US","REF_FRAME":"TEME","MEAN_MOTION":"15.06412285","MEAN_ELEMENT_THEORY":"SGP4","PERIOD":"95.591","TIME_SYSTEM":"UTC","REV_AT_EPOCH":"3232","ECCENTRICITY":"0.00009820"},{"EPOCH":"2021-10-02T13:56:38.698080","APOAPSIS":"547.688","RCS_SIZE":"LARGE","SITE":"AFETR","MEAN_MOTION_DDOT":"0.0000000000000","MEAN_MOTION_DOT":"0.00000877","ARG_OF_PERICENTER":"119.2784","OBJECT_NAME":"STARLINK-2321","RA_OF_ASC_NODE":"330.0684","ELEMENT_SET_NO":"999","TLE_LINE1":"1 47867U 21021H   21275.58100345  .00000877  00000-0  77722-4 0  9992","TLE_LINE2":"2 47867  53.0558 330.0684 0000702 119.2784 240.8275 15.06403768 32255","DECAY_DATE":null,"CLASSIFICATION_TYPE":"U","CENTER_NAME":"EARTH","BSTAR":"0.00007772200000","PERIAPSIS":"546.716","REF_FRAME":"TEME","COUNTRY_CODE":"US","LAUNCH_DATE":"2021-03-14","GP_ID":"186053334","FILE":"3141323","OBJECT_ID":"2021-021H","SEMIMAJOR_AXIS":"6925.337","EPHEMERIS_TYPE":"0","MEAN_ANOMALY":"240.8275","NORAD_CAT_ID":"47867","INCLINATION":"53.0558","OBJECT_TYPE":"PAYLOAD","TIME_SYSTEM":"UTC","REV_AT_EPOCH":"3225","ECCENTRICITY":"0.00007020","PERIOD":"95.592","MEAN_ELEMENT_THEORY":"SGP4","MEAN_MOTION":"15.06403768"},{"MEAN_MOTION":"15.73225314","MEAN_ELEMENT_THEORY":"SGP4","TIME_SYSTEM":"UTC","REV_AT_EPOCH":"3279","ECCENTRICITY":"0.00046190","PERIOD":"91.532","SEMIMAJOR_AXIS":"6727.823","FILE":"3141323","GP_ID":"186052082","OBJECT_ID":"2021-021J","NORAD_CAT_ID":"47868","INCLINATION":"53.0458","OBJECT_TYPE":"PAYLOAD","MEAN_ANOMALY":"10.0111","EPHEMERIS_TYPE":"0","REF_FRAME":"TEME","LAUNCH_DATE":"2021-03-14","COUNTRY_CODE":"US","BSTAR":"0.00003688800000","PERIAPSIS":"346.580","ELEMENT_SET_NO":"999","OBJECT_NAME":"STARLINK-2323","RA_OF_ASC_NODE":"294.1138","CLASSIFICATION_TYPE":"U","CENTER_NAME":"EARTH","TLE_LINE1":"1 47868U 21021J   21275.45907515  .00004563  00000-0  36888-4 0  9997","TLE_LINE2":"2 47868  53.0458 294.1138 0004619 350.0815  10.0111 15.73225314 32798","DECAY_DATE":null,"MEAN_MOTION_DOT":"0.00004563","ARG_OF_PERICENTER":"350.0815","EPOCH":"2021-10-02T11:01:04.092960","APOAPSIS":"352.796","MEAN_MOTION_DDOT":"0.0000000000000","SITE":"AFETR","RCS_SIZE":"LARGE"},{"MEAN_MOTION_DDOT":"0.0000000000000","SITE":"AFETR","RCS_SIZE":"LARGE","APOAPSIS":"547.731","EPOCH":"2021-10-02T13:51:20.116224","ARG_OF_PERICENTER":"115.9767","MEAN_MOTION_DOT":"0.00000685","CLASSIFICATION_TYPE":"U","CENTER_NAME":"EARTH","TLE_LINE1":"1 47869U 21021K   21275.57731616  .00000685  00000-0  64851-4 0  9990","TLE_LINE2":"2 47869  53.0574 330.0916 0000751 115.9767 244.1299 15.06400920 32408","DECAY_DATE":null,"ELEMENT_SET_NO":"999","OBJECT_NAME":"STARLINK-2324","RA_OF_ASC_NODE":"330.0916","PERIAPSIS":"546.691","BSTAR":"0.00006485100000","LAUNCH_DATE":"2021-03-14","COUNTRY_CODE":"US","REF_FRAME":"TEME","NORAD_CAT_ID":"47869","OBJECT_TYPE":"PAYLOAD","INCLINATION":"53.0574","EPHEMERIS_TYPE":"0","MEAN_ANOMALY":"244.1299","SEMIMAJOR_AXIS":"6925.346","GP_ID":"186051832","OBJECT_ID":"2021-021K","FILE":"3141323","PERIOD":"95.592","TIME_SYSTEM":"UTC","REV_AT_EPOCH":"3240","ECCENTRICITY":"0.00007510","MEAN_MOTION":"15.06400920","MEAN_ELEMENT_THEORY":"SGP4"},{"OBJECT_TYPE":"PAYLOAD","INCLINATION":"53.0584","NORAD_CAT_ID":"47870","MEAN_ANOMALY":"262.1667","EPHEMERIS_TYPE":"0","SEMIMAJOR_AXIS":"6925.362","GP_ID":"186053084","OBJECT_ID":"2021-021L","FILE":"3141323","LAUNCH_DATE":"2021-03-14","COUNTRY_CODE":"US","REF_FRAME":"TEME","MEAN_MOTION":"15.06395639","MEAN_ELEMENT_THEORY":"SGP4","PERIOD":"95.592","REV_AT_EPOCH":"3184","ECCENTRICITY":"0.00013290","TIME_SYSTEM":"UTC","ARG_OF_PERICENTER":"97.9473","MEAN_MOTION_DOT":"-0.00002627","MEAN_MOTION_DDOT":"0.0000000000000","SITE":"AFETR","RCS_SIZE":"LARGE","APOAPSIS":"548.147","EPOCH":"2021-10-02T14:05:15.742464","PERIAPSIS":"546.307","BSTAR":"-0.00015755000000","CENTER_NAME":"EARTH","CLASSIFICATION_TYPE":"U","TLE_LINE2":"2 47870  53.0584 355.0496 0001329  97.9473 262.1667 15.06395639 31842","DECAY_DATE":null,"TLE_LINE1":"1 47870U 21021L   21275.58698776 -.00002627  00000-0 -15755-3 0  9990","ELEMENT_SET_NO":"999","RA_OF_ASC_NODE":"355.0496","OBJECT_NAME":"STARLINK-2326"},{"BSTAR":"0.00001633000000","PERIAPSIS":"546.625","RA_OF_ASC_NODE":"330.1075","OBJECT_NAME":"STARLINK-2327","ELEMENT_SET_NO":"999","TLE_LINE2":"2 47871  53.0573 330.1075 0000862 111.4403 248.6678 15.06397265 32292","DECAY_DATE":null,"TLE_LINE1":"1 47871U 21021M   21275.57362950 -.00000038  00000-0  16330-4 0  9996","CENTER_NAME":"EARTH","CLASSIFICATION_TYPE":"U","MEAN_MOTION_DOT":"-0.00000038","ARG_OF_PERICENTER":"111.4403","EPOCH":"2021-10-02T13:46:01.588800","APOAPSIS":"547.819","RCS_SIZE":"LARGE","MEAN_MOTION_DDOT":"0.0000000000000","SITE":"AFETR","MEAN_ELEMENT_THEORY":"SGP4","MEAN_MOTION":"15.06397265","ECCENTRICITY":"0.00008620","REV_AT_EPOCH":"3229","TIME_SYSTEM":"UTC","PERIOD":"95.592","GP_ID":"186052834","FILE":"3141323","OBJECT_ID":"2021-021M","SEMIMAJOR_AXIS":"6925.357","MEAN_ANOMALY":"248.6678","EPHEMERIS_TYPE":"0","OBJECT_TYPE":"PAYLOAD","INCLINATION":"53.0573","NORAD_CAT_ID":"47871","REF_FRAME":"TEME","COUNTRY_CODE":"US","LAUNCH_DATE":"2021-03-14"},{"REF_FRAME":"TEME","LAUNCH_DATE":"2021-03-14","COUNTRY_CODE":"US","SEMIMAJOR_AXIS":"6769.850","OBJECT_ID":"2021-021N","GP_ID":"186051582","FILE":"3141323","OBJECT_TYPE":"PAYLOAD","INCLINATION":"53.0465","NORAD_CAT_ID":"47872","EPHEMERIS_TYPE":"0","MEAN_ANOMALY":"338.5608","REV_AT_EPOCH":"3280","ECCENTRICITY":"0.00013830","TIME_SYSTEM":"UTC","PERIOD":"92.391","MEAN_MOTION":"15.58598337","MEAN_ELEMENT_THEORY":"SGP4","EPOCH":"2021-10-02T13:21:22.063968","APOAPSIS":"392.651","SITE":"AFETR","MEAN_MOTION_DDOT":"0.0000000000000","RCS_SIZE":"LARGE","MEAN_MOTION_DOT":"-0.00327046","ARG_OF_PERICENTER":"21.5461","ELEMENT_SET_NO":"999","RA_OF_ASC_NODE":"294.0787","OBJECT_NAME":"STARLINK-2328","CENTER_NAME":"EARTH","CLASSIFICATION_TYPE":"U","DECAY_DATE":null,"TLE_LINE2":"2 47872  53.0465 294.0787 0001383  21.5461 338.5608 15.58598337 32804","TLE_LINE1":"1 47872U 21021N   21275.55650537 -.00327046  00000-0 -43566-2 0  9997","BSTAR":"-0.00435660000000","PERIAPSIS":"390.779"},{"MEAN_ELEMENT_THEORY":"SGP4","MEAN_MOTION":"15.06394684","PERIOD":"95.592","REV_AT_EPOCH":"3229","ECCENTRICITY":"0.00007230","TIME_SYSTEM":"UTC","EPHEMERIS_TYPE":"0","MEAN_ANOMALY":"225.1577","OBJECT_TYPE":"PAYLOAD","INCLINATION":"53.0473","NORAD_CAT_ID":"47873","GP_ID":"186052333","OBJECT_ID":"2021-021P","FILE":"3141323","SEMIMAJOR_AXIS":"6925.365","COUNTRY_CODE":"US","LAUNCH_DATE":"2021-03-14","REF_FRAME":"TEME","PERIAPSIS":"546.729","BSTAR":"0.00002334800000","TLE_LINE2":"2 47873  53.0473 329.9157 0000723 134.9470 225.1577 15.06394684 32290","TLE_LINE1":"1 47873U 21021P   21275.62155234  .00000067  00000-0  23348-4 0  9997","DECAY_DATE":null,"CENTER_NAME":"EARTH","CLASSIFICATION_TYPE":"U","RA_OF_ASC_NODE":"329.9157","OBJECT_NAME":"STARLINK-2329","ELEMENT_SET_NO":"999","ARG_OF_PERICENTER":"134.9470","MEAN_MOTION_DOT":"0.00000067","RCS_SIZE":"LARGE","SITE":"AFETR","MEAN_MOTION_DDOT":"0.0000000000000","EPOCH":"2021-10-02T14:55:02.122176","APOAPSIS":"547.731"}];
